[{"OBJECT_NAME":"STARLINK-32236","OBJECT_ID":"2024-141W","EPOCH":"2026-03-09T16:55:45.780672","MEAN_MOTION":15.30194506,"ECCENTRICITY":9.214e-5,"INCLINATION":53.1597,"RA_OF_ASC_NODE":242.4669,"ARG_OF_PERICENTER":88.9294,"MEAN_ANOMALY":271.1812,"EPHEMERIS_TYPE":0,"CLASSIFICATION_TYPE":"U","NORAD_CAT_ID":60418,"ELEMENT_SET_NO":999,"REV_AT_EPOCH":8958,"BSTAR":3.615563e-6,"MEAN_MOTION_DOT":-2.52e-6,"MEAN_MOTION_DDOT":0},{"OBJECT_NAME":"OBJECT G","OBJECT_ID":"2025-155G","EPOCH":"2026-03-09T22:09:56.639808","MEAN_MOTION":15.27590702,"ECCENTRICITY":0.00081871,"INCLINATION":97.4488,"RA_OF_ASC_NODE":37.3259,"ARG_OF_PERICENTER":154.1528,"MEAN_ANOMALY":206.0122,"EPHEMERIS_TYPE":0,"CLASSIFICATION_TYPE":"U","NORAD_CAT_ID":64882,"ELEMENT_SET_NO":999,"REV_AT_EPOCH":6559,"BSTAR":0.0004792617,"MEAN_MOTION_DOT":0.00012876,"MEAN_MOTION_DDOT":0}]
